[
    {
        "OBJECT_NAME": "ONEWEB-0033",
        "OBJECT_ID": "2020-008M",
        "EPOCH": "2025-12-06T18:49:54.756192",
        "MEAN_MOTION": 13.10375167,
        "ECCENTRICITY": 0.00014759,
        "INCLINATION": 87.8811,
        "RA_OF_ASC_NODE": 74.6419,
        "ARG_OF_PERICENTER": 83.4599,
        "MEAN_ANOMALY": 276.6696,
        "EPHEMERIS_TYPE": 0,
        "CLASSIFICATION_TYPE": "U",
        "NORAD_CAT_ID": 45142,
        "ELEMENT_SET_NO": 999,
        "REV_AT_EPOCH": 28301,
        "BSTAR": 0.0013421129,
        "MEAN_MOTION_DOT": 4.81e-06,
        "MEAN_MOTION_DDOT": 0
    },
    {
        "OBJECT_NAME": "ONEWEB-0035",
        "OBJECT_ID": "2020-008N",
        "EPOCH": "2025-12-06T17:44:09.773664",
        "MEAN_MOTION": 13.10369385,
        "ECCENTRICITY": 0.00015925,
        "INCLINATION": 87.8802,
        "RA_OF_ASC_NODE": 74.6506,
        "ARG_OF_PERICENTER": 100.2373,
        "MEAN_ANOMALY": 259.8934,
        "EPHEMERIS_TYPE": 0,
        "CLASSIFICATION_TYPE": "U",
        "NORAD_CAT_ID": 45143,
        "ELEMENT_SET_NO": 999,
        "REV_AT_EPOCH": 28273,
        "BSTAR": -0.0002577631,
        "MEAN_MOTION_DOT": -7.7e-07,
        "MEAN_MOTION_DDOT": 0
    },
    {
        "OBJECT_NAME": "ONEWEB-0036",
        "OBJECT_ID": "2020-008P",
        "EPOCH": "2025-12-06T19:19:46.876224",
        "MEAN_MOTION": 13.10368533,
        "ECCENTRICITY": 0.00016954,
        "INCLINATION": 87.8812,
        "RA_OF_ASC_NODE": 74.5944,
        "ARG_OF_PERICENTER": 116.5233,
        "MEAN_ANOMALY": 243.6068,
        "EPHEMERIS_TYPE": 0,
        "CLASSIFICATION_TYPE": "U",
        "NORAD_CAT_ID": 45144,
        "ELEMENT_SET_NO": 999,
        "REV_AT_EPOCH": 28317,
        "BSTAR": 0.0013001103,
        "MEAN_MOTION_DOT": 4.66e-06,
        "MEAN_MOTION_DDOT": 0
    },
    {
        "OBJECT_NAME": "ONEWEB-0038",
        "OBJECT_ID": "2020-008Q",
        "EPOCH": "2025-12-06T17:57:43.765344",
        "MEAN_MOTION": 13.11428734,
        "ECCENTRICITY": 0.00032854,
        "INCLINATION": 87.8867,
        "RA_OF_ASC_NODE": 59.3826,
        "ARG_OF_PERICENTER": 88.7628,
        "MEAN_ANOMALY": 271.3876,
        "EPHEMERIS_TYPE": 0,
        "CLASSIFICATION_TYPE": "U",
        "NORAD_CAT_ID": 45145,
        "ELEMENT_SET_NO": 999,
        "REV_AT_EPOCH": 28510,
        "BSTAR": 0.0045124035,
        "MEAN_MOTION_DOT": 1.613e-05,
        "MEAN_MOTION_DDOT": 0
    },
    {
        "OBJECT_NAME": "ONEWEB-0039",
        "OBJECT_ID": "2020-008R",
        "EPOCH": "2025-12-06T18:54:41.540256",
        "MEAN_MOTION": 13.10378933,
        "ECCENTRICITY": 0.00020472,
        "INCLINATION": 87.8819,
        "RA_OF_ASC_NODE": 74.6142,
        "ARG_OF_PERICENTER": 116.2268,
        "MEAN_ANOMALY": 243.907,
        "EPHEMERIS_TYPE": 0,
        "CLASSIFICATION_TYPE": "U",
        "NORAD_CAT_ID": 45146,
        "ELEMENT_SET_NO": 999,
        "REV_AT_EPOCH": 28296,
        "BSTAR": 0.0017803757,
        "MEAN_MOTION_DOT": 6.34e-06,
        "MEAN_MOTION_DDOT": 0
    },
    {
        "OBJECT_NAME": "ONEWEB-0040",
        "OBJECT_ID": "2020-008S",
        "EPOCH": "2025-12-06T18:45:07.782048",
        "MEAN_MOTION": 13.10375966,
        "ECCENTRICITY": 0.00017407,
        "INCLINATION": 87.881,
        "RA_OF_ASC_NODE": 74.6417,
        "ARG_OF_PERICENTER": 104.324,
        "MEAN_ANOMALY": 255.8081,
        "EPHEMERIS_TYPE": 0,
        "CLASSIFICATION_TYPE": "U",
        "NORAD_CAT_ID": 45147,
        "ELEMENT_SET_NO": 999,
        "REV_AT_EPOCH": 28266,
        "BSTAR": 0.0010567619,
        "MEAN_MOTION_DOT": 3.82e-06,
        "MEAN_MOTION_DDOT": 0
    },
    {
        "OBJECT_NAME": "ONEWEB-0043",
        "OBJECT_ID": "2020-008U",
        "EPOCH": "2025-12-06T18:47:32.469216",
        "MEAN_MOTION": 13.10395404,
        "ECCENTRICITY": 0.00021287,
        "INCLINATION": 87.8812,
        "RA_OF_ASC_NODE": 74.6222,
        "ARG_OF_PERICENTER": 117.2322,
        "MEAN_ANOMALY": 242.9022,
        "EPHEMERIS_TYPE": 0,
        "CLASSIFICATION_TYPE": "U",
        "NORAD_CAT_ID": 45149,
        "ELEMENT_SET_NO": 999,
        "REV_AT_EPOCH": 28298,
        "BSTAR": 0.00097503534,
        "MEAN_MOTION_DOT": 3.53e-06,
        "MEAN_MOTION_DDOT": 0
    },
    {
        "OBJECT_NAME": "ONEWEB-0044",
        "OBJECT_ID": "2020-008V",
        "EPOCH": "2025-12-06T19:28:08.587200",
        "MEAN_MOTION": 13.10368084,
        "ECCENTRICITY": 0.00017295,
        "INCLINATION": 87.8806,
        "RA_OF_ASC_NODE": 74.6085,
        "ARG_OF_PERICENTER": 113.211,
        "MEAN_ANOMALY": 246.92,
        "EPHEMERIS_TYPE": 0,
        "CLASSIFICATION_TYPE": "U",
        "NORAD_CAT_ID": 45150,
        "ELEMENT_SET_NO": 999,
        "REV_AT_EPOCH": 28328,
        "BSTAR": 0.00031119261,
        "MEAN_MOTION_DOT": 1.21e-06,
        "MEAN_MOTION_DDOT": 0
    },
    {
        "OBJECT_NAME": "ONEWEB-0045",
        "OBJECT_ID": "2020-008W",
        "EPOCH": "2025-12-06T17:50:11.560704",
        "MEAN_MOTION": 13.11419704,
        "ECCENTRICITY": 0.00018,
        "INCLINATION": 87.8881,
        "RA_OF_ASC_NODE": 59.3664,
        "ARG_OF_PERICENTER": 103.9617,
        "MEAN_ANOMALY": 256.1711,
        "EPHEMERIS_TYPE": 0,
        "CLASSIFICATION_TYPE": "U",
        "NORAD_CAT_ID": 45151,
        "ELEMENT_SET_NO": 999,
        "REV_AT_EPOCH": 28518,
        "BSTAR": 0.001189666,
        "MEAN_MOTION_DOT": 4.34e-06,
        "MEAN_MOTION_DDOT": 0
    },
    {
        "OBJECT_NAME": "ONEWEB-0047",
        "OBJECT_ID": "2020-008X",
        "EPOCH": "2025-12-06T19:18:35.941824",
        "MEAN_MOTION": 13.10371688,
        "ECCENTRICITY": 0.00016359,
        "INCLINATION": 87.8802,
        "RA_OF_ASC_NODE": 74.6193,
        "ARG_OF_PERICENTER": 109.011,
        "MEAN_ANOMALY": 251.1195,
        "EPHEMERIS_TYPE": 0,
        "CLASSIFICATION_TYPE": "U",
        "NORAD_CAT_ID": 45152,
        "ELEMENT_SET_NO": 999,
        "REV_AT_EPOCH": 28300,
        "BSTAR": 0.0013026739,
        "MEAN_MOTION_DOT": 4.67e-06,
        "MEAN_MOTION_DDOT": 0
    },
    {
        "OBJECT_NAME": "ONEWEB-0048",
        "OBJECT_ID": "2020-008Y",
        "EPOCH": "2025-12-06T19:11:27.714048",
        "MEAN_MOTION": 13.10373292,
        "ECCENTRICITY": 0.00015394,
        "INCLINATION": 87.8809,
        "RA_OF_ASC_NODE": 74.6474,
        "ARG_OF_PERICENTER": 100.1214,
        "MEAN_ANOMALY": 260.0087,
        "EPHEMERIS_TYPE": 0,
        "CLASSIFICATION_TYPE": "U",
        "NORAD_CAT_ID": 45153,
        "ELEMENT_SET_NO": 999,
        "REV_AT_EPOCH": 28261,
        "BSTAR": 0.0017984687,
        "MEAN_MOTION_DOT": 6.41e-06,
        "MEAN_MOTION_DDOT": 0
    },
    {
        "OBJECT_NAME": "ONEWEB-0049",
        "OBJECT_ID": "2020-008Z",
        "EPOCH": "2025-12-06T19:15:14.815584",
        "MEAN_MOTION": 13.1023816,
        "ECCENTRICITY": 0.00017202,
        "INCLINATION": 87.8799,
        "RA_OF_ASC_NODE": 74.6359,
        "ARG_OF_PERICENTER": 156.9877,
        "MEAN_ANOMALY": 203.1328,
        "EPHEMERIS_TYPE": 0,
        "CLASSIFICATION_TYPE": "U",
        "NORAD_CAT_ID": 45154,
        "ELEMENT_SET_NO": 999,
        "REV_AT_EPOCH": 28283,
        "BSTAR": -0.044063611,
        "MEAN_MOTION_DOT": -0.00015314,
        "MEAN_MOTION_DDOT": 0
    },
    {
        "OBJECT_NAME": "ONEWEB-0051",
        "OBJECT_ID": "2020-008AA",
        "EPOCH": "2025-12-06T17:47:46.427712",
        "MEAN_MOTION": 13.1141747,
        "ECCENTRICITY": 0.00016244,
        "INCLINATION": 87.8861,
        "RA_OF_ASC_NODE": 59.3896,
        "ARG_OF_PERICENTER": 101.7601,
        "MEAN_ANOMALY": 258.3709,
        "EPHEMERIS_TYPE": 0,
        "CLASSIFICATION_TYPE": "U",
        "NORAD_CAT_ID": 45155,
        "ELEMENT_SET_NO": 999,
        "REV_AT_EPOCH": 28586,
        "BSTAR": 0.00096456053,
        "MEAN_MOTION_DOT": 3.55e-06,
        "MEAN_MOTION_DDOT": 0
    },
    {
        "OBJECT_NAME": "ONEWEB-0052",
        "OBJECT_ID": "2020-008AB",
        "EPOCH": "2025-12-06T19:07:50.772288",
        "MEAN_MOTION": 13.10371892,
        "ECCENTRICITY": 0.00013904,
        "INCLINATION": 87.8814,
        "RA_OF_ASC_NODE": 74.5967,
        "ARG_OF_PERICENTER": 123.2699,
        "MEAN_ANOMALY": 236.8562,
        "EPHEMERIS_TYPE": 0,
        "CLASSIFICATION_TYPE": "U",
        "NORAD_CAT_ID": 45156,
        "ELEMENT_SET_NO": 999,
        "REV_AT_EPOCH": 28274,
        "BSTAR": 0.0017463105,
        "MEAN_MOTION_DOT": 6.22e-06,
        "MEAN_MOTION_DDOT": 0
    },
    {
        "OBJECT_NAME": "ONEWEB-0053",
        "OBJECT_ID": "2020-008AC",
        "EPOCH": "2025-12-06T18:42:44.127360",
        "MEAN_MOTION": 13.10375421,
        "ECCENTRICITY": 0.0001948,
        "INCLINATION": 87.8814,
        "RA_OF_ASC_NODE": 74.6468,
        "ARG_OF_PERICENTER": 106.108,
        "MEAN_ANOMALY": 254.0262,
        "EPHEMERIS_TYPE": 0,
        "CLASSIFICATION_TYPE": "U",
        "NORAD_CAT_ID": 45157,
        "ELEMENT_SET_NO": 999,
        "REV_AT_EPOCH": 28271,
        "BSTAR": 0.00068987065,
        "MEAN_MOTION_DOT": 2.53e-06,
        "MEAN_MOTION_DDOT": 0
    },
    {
        "OBJECT_NAME": "ONEWEB-0054",
        "OBJECT_ID": "2020-008AD",
        "EPOCH": "2025-12-06T19:32:55.678848",
        "MEAN_MOTION": 13.10369697,
        "ECCENTRICITY": 0.00015053,
        "INCLINATION": 87.8803,
        "RA_OF_ASC_NODE": 74.6114,
        "ARG_OF_PERICENTER": 106.04,
        "MEAN_ANOMALY": 254.0893,
        "EPHEMERIS_TYPE": 0,
        "CLASSIFICATION_TYPE": "U",
        "NORAD_CAT_ID": 45158,
        "ELEMENT_SET_NO": 999,
        "REV_AT_EPOCH": 28283,
        "BSTAR": 4.7184881e-05,
        "MEAN_MOTION_DOT": 2.9e-07,
        "MEAN_MOTION_DDOT": 0
    }
]